ORBCOMM FM24            
1 25478U 98053D   25065.61973798  .00002003  00000+0  70763-3 0  9999
2 25478  45.0085  35.2806 0002024   5.1582 354.9287 14.37656109382680
ORBCOMM FM25            
1 25479U 98053E   25065.58932914  .00002110  00000+0  74303-3 0  9994
2 25479  45.0078  33.6831 0003044  59.7808 300.3341 14.37637705382971
ORBCOMM FM26            
1 25480U 98053F   25065.60505438  .00001751  00000+0  63548-3 0  9995
2 25480  45.0082  29.3495 0004252  97.5208 262.6123 14.36763344382899
ORBCOMM FM27            
1 25481U 98053G   25065.64810556  .00002149  00000+0  75567-3 0  9996
2 25481  45.0062  33.6398 0001958 321.7715  38.2994 14.37645728382915
ORBCOMM FM28            
1 25482U 98053H   25065.42295447  .00001620  00000+0  57830-3 0  9995
2 25482  45.0071 332.3759 0003376 128.4647 231.6505 14.37896023383563
ORBCOMM FM30            
1 25980U 99065A   25065.67595517  .00001758  00000+0  63587-3 0  9998
2 25980  45.0307 214.8221 0007524 210.9347 149.1059 14.36922909319703
ORBCOMM FM31            
1 25981U 99065B   25065.71513102  .00001727  00000+0  62587-3 0  9999
2 25981  45.0221 208.1591 0004813 229.4853 130.5576 14.36883931319260
ORBCOMM FM32            
1 25982U 99065C   25065.69313443  .00001675  00000+0  62028-3 0  9995
2 25982  45.0148 224.1486 0006590 228.9697 131.0582 14.35925064319866
